NORAD_CAT_ID,OBJECT_NAME,OBJECT_TYPE,EPOCH,MEAN_MOTION,ECCENTRICITY,INCLINATION,RA_OF_ASC_NODE,ARG_OF_PERICENTER,MEAN_ANOMALY,BSTAR,MEAN_MOTION_DOT,MEAN_MOTION_DDOT,TLE_LINE0,TLE_LINE1,TLE_LINE2,SEMIMAJOR_AXIS,PERIOD,APOGEE,PERIGEE,DECAYED
49426.0,STARLINK-3114,PAYLOAD,2024-02-22 02:10:31,15.08830775,0.0001601,53.22,340.7407,111.3736,248.7427,9.9516e-05,1.296e-05,0.0,0 STARLINK-3114,1 49426U 21104U   24053.09064787  .00001296  00000-0  99516-4 0  9990,2 49426  53.2200 340.7407 0001601 111.3736 248.7427 15.08830775127002,6917.909,95.438,540.881,538.666,0.0
49426.0,STARLINK-3114,PAYLOAD,2024-02-22 11:42:50,15.08838999,0.0001379,53.2188,338.9508,84.558,275.557,8.2936e-05,1.032e-05,0.0,0 STARLINK-3114,1 49426U 21104U   24053.48808435  .00001032  00000-0  82936-4 0  9995,2 49426  53.2188 338.9508 0001379  84.5580 275.5570 15.08838999125975,6917.883,95.438,540.702,538.794,0.0
49426.0,STARLINK-3114,PAYLOAD,2024-02-22 22:50:32,15.08846045,0.0001386,53.2189,336.869,90.1894,269.9257,-6.071e-05,-1.254e-05,0.0,0 STARLINK-3114,1 49426U 21104U   24053.95176461 -.00001254  00000-0 -60710-4 0  9998,2 49426  53.2189 336.8690 0001386  90.1894 269.9257 15.08846045126043,6917.862,95.437,540.686,538.768,0.0
49426.0,STARLINK-3114,PAYLOAD,2024-02-23 02:01:18,15.08848458,0.0001436,53.2195,336.2737,85.7562,274.3594,-2.7497e-05,-7.26e-06,0.0,0 STARLINK-3114,1 49426U 21104U   24054.08424166 -.00000726  00000-0 -27497-4 0  9999,2 49426  53.2195 336.2737 0001436  85.7562 274.3594 15.08848458127151,6917.855,95.437,540.713,538.726,0.0
49426.0,STARLINK-3114,PAYLOAD,2024-02-23 11:33:37,15.08848453,0.0001526,53.2193,334.4862,65.696,294.4191,-2.0834e-05,-6.2e-06,0.0,0 STARLINK-3114,1 49426U 21104U   24054.48168009 -.00000620  00000-0 -20834-4 0  9995,2 49426  53.2193 334.4862 0001526  65.6960 294.4191 15.08848453126124,6917.855,95.437,540.775,538.664,0.0
49426.0,STARLINK-3114,PAYLOAD,2024-02-23 22:41:20,15.08831618,0.0002263,53.2195,332.4072,78.3099,281.8147,8.2092e-05,1.018e-05,0.0,0 STARLINK-3114,1 49426U 21104U   24054.94537341  .00001018  00000-0  82092-4 0  9999,2 49426  53.2195 332.4072 0002263  78.3099 281.8147 15.08831618126193,6917.906,95.438,541.337,538.205,0.0
49426.0,STARLINK-3114,PAYLOAD,2024-02-24 03:27:29,15.08834813,0.0001529,53.2201,331.5202,97.6992,262.4174,3.2851e-05,2.35e-06,0.0,0 STARLINK-3114,1 49426U 21104U   24055.14409173  .00000235  00000-0  32851-4 0  9991,2 49426  53.2201 331.5202 0001529  97.6992 262.4174 15.08834813127316,6917.896,95.438,540.819,538.703,0.0
49426.0,STARLINK-3114,PAYLOAD,2024-02-24 11:24:25,15.08835514,0.0001478,53.2201,330.0316,110.1884,249.9268,9.3849e-06,-1.39e-06,0.0,0 STARLINK-3114,1 49426U 21104U   24055.47529277 -.00000139  00000-0  93849-5 0  9994,2 49426  53.2201 330.0316 0001478 110.1884 249.9268 15.08835514126277,6917.894,95.438,540.782,538.737,0.0
49426.0,STARLINK-3114,PAYLOAD,2024-02-24 17:45:58,15.08832495,0.0001301,53.2199,328.8433,87.7558,272.3583,5.8151e-05,6.38e-06,0.0,0 STARLINK-3114,1 49426U 21104U   24055.74025522  .00000638  00000-0  58151-4 0  9997,2 49426  53.2199 328.8433 0001301  87.7558 272.3583 15.08832495126310,6917.903,95.438,540.668,538.868,0.0
49426.0,STARLINK-3114,PAYLOAD,2024-02-25 03:18:15,15.08850317,0.0001373,53.2177,327.061,89.6532,270.4617,5.2753e-05,5.52e-06,0.0,0 STARLINK-3114,1 49426U 21104U   24056.13768382  .00000552  00000-0  52753-4 0  9996,2 49426  53.2177 327.0610 0001373  89.6532 270.4617 15.08850317127463,6917.849,95.437,540.664,538.764,0.0
49426.0,STARLINK-3114,PAYLOAD,2024-02-25 22:22:53,15.08842073,0.0001495,53.2169,323.4913,83.2269,276.8893,0.00020039,2.903e-05,0.0,0 STARLINK-3114,1 49426U 21104U   24056.93256489  .00002903  00000-0  20039-3 0  9997,2 49426  53.2169 323.4913 0001495  83.2269 276.8893 15.08842073126490,6917.874,95.437,540.773,538.705,0.0
49426.0,STARLINK-3114,PAYLOAD,2024-02-26 03:09:02,15.08852997,0.0001713,53.2185,322.5947,94.6374,265.4814,0.00019063,2.748e-05,0.0,0 STARLINK-3114,1 49426U 21104U   24057.13127788  .00002748  00000-0  19063-3 0  9991,2 49426  53.2185 322.5947 0001713  94.6374 265.4814 15.08852997126528,6917.841,95.437,540.891,538.521,0.0
49426.0,STARLINK-3114,PAYLOAD,2024-02-26 17:27:32,15.08836687,0.0001498,53.2155,319.9239,67.2422,292.8728,6.1909e-06,-1.89e-06,0.0,0 STARLINK-3114,1 49426U 21104U   24057.72745379 -.00000189  00000-0  61909-5 0  9994,2 49426  53.2155 319.9239 0001498  67.2422 292.8728 15.08836687127706,6917.891,95.438,540.792,538.719,0.0
49426.0,STARLINK-3114,PAYLOAD,2024-02-26 22:13:41,15.08836463,0.0001634,53.2182,319.0316,74.7935,285.3238,-1.417e-06,-3.11e-06,0.0,0 STARLINK-3114,1 49426U 21104U   24057.92617532 -.00000311  00000-0 -14170-5 0  9991,2 49426  53.2182 319.0316 0001634  74.7935 285.3238 15.08836463126644,6917.891,95.438,540.887,538.626,0.0
49426.0,STARLINK-3114,PAYLOAD,2024-02-26 23:49:04,15.08840039,0.0001661,53.218,318.7316,103.7696,256.3481,-7.5588e-06,-4.08e-06,0.0,0 STARLINK-3114,1 49426U 21104U   24057.99241155 -.00000408  00000-0 -75588-5 0  9999,2 49426  53.2180 318.7316 0001661 103.7696 256.3481 15.08840039126658,6917.88,95.438,540.894,538.596,0.0
49426.0,STARLINK-3114,PAYLOAD,2024-02-27 20:29:04,15.08845057,0.0001474,53.2185,314.8666,98.7942,261.3217,-4.7939e-05,-1.051e-05,0.0,0 STARLINK-3114,1 49426U 21104U   24058.85352996 -.00001051  00000-0 -47939-4 0  9994,2 49426  53.2185 314.8666 0001474  98.7942 261.3217 15.08845057127870,6917.865,95.437,540.75,538.71,0.0
49426.0,STARLINK-3114,PAYLOAD,2024-02-27 22:04:28,15.08845284,0.0001458,53.2185,314.5693,96.6397,263.4761,-4.6473e-05,-1.028e-05,0.0,0 STARLINK-3114,1 49426U 21104U   24058.91976977 -.00001028  00000-0 -46473-4 0  9998,2 49426  53.2185 314.5693 0001458  96.6397 263.4761 15.08845284126799,6917.864,95.437,540.738,538.721,0.0
49426.0,STARLINK-3114,PAYLOAD,2024-02-28 02:50:37,15.08845775,0.0001386,53.2175,313.6754,92.9153,267.1998,4.1589e-05,3.74e-06,0.0,0 STARLINK-3114,1 49426U 21104U   24059.11848685  .00000374  00000-0  41589-4 0  9999,2 49426  53.2175 313.6754 0001386  92.9153 267.1998 15.08845775126827,6917.863,95.437,540.687,538.769,0.0
49426.0,STARLINK-3114,PAYLOAD,2024-02-28 20:19:52,15.08833591,0.0001378,53.2169,310.4037,94.1913,265.9236,9.1747e-05,1.172e-05,0.0,0 STARLINK-3114,1 49426U 21104U   24059.84713490  .00001172  00000-0  91747-4 0  9992,2 49426  53.2169 310.4037 0001378  94.1913 265.9236 15.08833591128026,6917.9,95.438,540.718,538.812,0.0
49426.0,STARLINK-3114,PAYLOAD,2024-02-28 21:55:15,15.08835452,0.0001354,53.2175,310.1059,99.6545,260.46,0.00010502,1.384e-05,0.0,0 STARLINK-3114,1 49426U 21104U   24059.91337356  .00001384  00000-0  10502-3 0  9997,2 49426  53.2175 310.1059 0001354  99.6545 260.4600 15.08835452126941,6917.894,95.438,540.696,538.823,0.0
49426.0,STARLINK-3114,PAYLOAD,2024-02-29 15:24:30,15.08838509,0.0001431,53.2181,306.8376,95.8797,264.2358,6.3916e-05,7.29e-06,0.0,0 STARLINK-3114,1 49426U 21104U   24060.64201585  .00000729  00000-0  63916-4 0  9993,2 49426  53.2181 306.8376 0001431  95.8797 264.2358 15.08838509127056,6917.885,95.438,540.74,538.76,0.0
49426.0,STARLINK-3114,PAYLOAD,2024-02-29 23:21:25,15.08842539,0.0001409,53.2183,305.3517,99.5262,260.5889,9.864e-05,1.282e-05,0.0,0 STARLINK-3114,1 49426U 21104U   24060.97321248  .00001282  00000-0  98640-4 0  9995,2 49426  53.2183 305.3517 0001409  99.5262 260.5889 15.08842539127104,6917.873,95.437,540.712,538.763,0.0
49426.0,STARLINK-3114,PAYLOAD,2024-03-01 15:15:17,15.08840843,0.0001431,53.2187,302.3789,93.9818,266.1337,5.378e-05,5.68e-06,0.0,0 STARLINK-3114,1 49426U 21104U   24061.63561410  .00000568  00000-0  53780-4 0  9998,2 49426  53.2187 302.3789 0001431  93.9818 266.1337 15.08840843127203,6917.878,95.438,540.733,538.753,0.0
49426.0,STARLINK-3114,PAYLOAD,2024-03-01 20:01:26,15.08838555,0.0001532,53.2189,301.4869,105.88,254.2361,9.012e-05,1.147e-05,0.0,0 STARLINK-3114,1 49426U 21104U   24061.83433573  .00001147  00000-0  90120-4 0  9991,2 49426  53.2189 301.4869 0001532 105.8800 254.2361 15.08838555128326,6917.885,95.438,540.81,538.69,0.0
49426.0,STARLINK-3114,PAYLOAD,2024-03-01 21:36:49,15.08841207,0.0001515,53.2182,301.1894,107.1289,252.987,5.6754e-05,6.15e-06,0.0,0 STARLINK-3114,1 49426U 21104U   24061.90057483  .00000615  00000-0  56754-4 0  9995,2 49426  53.2182 301.1894 0001515 107.1289 252.9870 15.08841207127249,6917.877,95.437,540.79,538.694,0.0
49426.0,STARLINK-3114,PAYLOAD,2024-03-01 23:12:12,15.08844351,0.0001493,53.2186,300.8926,107.6994,252.4161,5.8587e-05,6.45e-06,0.0,0 STARLINK-3114,1 49426U 21104U   24061.96681256  .00000645  00000-0  58587-4 0  9991,2 49426  53.2186 300.8926 0001493 107.6994 252.4161 15.08844351127250,6917.867,95.437,540.765,538.699,0.0
49426.0,STARLINK-3114,PAYLOAD,2024-03-02 19:52:12,15.08855035,0.0001512,53.2185,297.0268,107.9159,252.1999,0.00017204,2.452e-05,0.0,0 STARLINK-3114,1 49426U 21104U   24062.82791990  .00002452  00000-0  17204-3 0  9992,2 49426  53.2185 297.0268 0001512 107.9159 252.1999 15.08855035128475,6917.834,95.437,540.745,538.653,0.0
49426.0,STARLINK-3114,PAYLOAD,2024-03-02 21:27:35,15.08857588,0.0001513,53.2186,296.7297,97.9232,262.1932,0.00019213,2.773e-05,0.0,0 STARLINK-3114,1 49426U 21104U   24062.89415819  .00002773  00000-0  19213-3 0  9990,2 49426  53.2186 296.7297 0001513  97.9232 262.1932 15.08857588127398,6917.827,95.436,540.738,538.645,0.0
49426.0,STARLINK-3114,PAYLOAD,2024-03-03 00:38:21,15.08868659,0.0001538,53.217,296.1346,113.4751,246.6403,0.00038766,5.892e-05,0.0,0 STARLINK-3114,1 49426U 21104U   24063.02663258  .00005892  00000-0  38766-3 0  9997,2 49426  53.2170 296.1346 0001538 113.4751 246.6403 15.08868659128502,6917.793,95.436,540.722,538.594,0.0
49426.0,STARLINK-3114,PAYLOAD,2024-03-03 08:35:18,15.08840273,0.0001756,53.2171,294.6478,85.0229,275.0964,-1.9585e-05,-6e-06,0.0,0 STARLINK-3114,1 49426U 21104U   24063.35784898 -.00000600  00000-0 -19585-4 0  9990,2 49426  53.2171 294.6478 0001756  85.0229 275.0964 15.08840273128553,6917.88,95.438,540.959,538.53,0.0
